ONEWEB-0514             
1 54132U 22138V   23059.29255563  .00000072  00000+0  14762-3 0  9998
2 54132  87.9293 184.5622 0001726 103.5588 256.5737 13.19726907 18772
ONEWEB-0514             
1 54132U 22138V   23059.36837216  .00000109  00000+0  23940-3 0  9996
2 54132  87.9293 184.5472 0001729 103.5423 256.5903 13.19727034 17918
ONEWEB-0514             
1 54132U 22138V   23059.89908986 -.00000004  00000+0 -42183-4 0  9994
2 54132  87.9293 184.4418 0001723 103.7008 256.4317 13.19726711 17988
ONEWEB-0514             
1 54132U 22138V   23060.35398979  .00000054  00000+0  10301-3 0  9991
2 54132  87.9293 184.3523 0001723 102.9341 257.1984 13.19726878 18911
ONEWEB-0514             
1 54132U 22138V   23060.88470719  .00000156  00000+0  35613-3 0  9998
2 54132  87.9294 184.2472 0001696 102.3725 257.7597 13.19725776 18117
ONEWEB-0514             
1 54132U 22138V   23061.79450771 -.00000040  00000+0 -13205-3 0  9992
2 54132  87.9291 184.0672 0001697 102.1199 258.0124 13.19726279 18230
ONEWEB-0514             
1 54132U 22138V   23062.40103999  .00000136  00000+0  30628-3 0  9990
2 54132  87.9292 183.9474 0001716 103.3151 256.8173 13.19727356 18318
ONEWEB-0514             
1 54132U 22138V   23062.40103999  .00000136  00000+0  30628-3 0  9990
2 54132  87.9292 183.9474 0001716 103.3151 256.8173 13.19727356 19184
ONEWEB-0514             
1 54132U 22138V   23062.85594157 -.00000088  00000+0 -25316-3 0  9995
2 54132  87.9295 183.8575 0001689 103.3790 256.7531 13.19726489 18379
